CCSDS_OEM_VERS = 2.0  
CREATION_DATE  = 2026-05-08T16:26:22
ORIGINATOR     = ESOC/OPS-GFA                            
 
 



META_START
OBJECT_NAME          = LISA                                    
OBJECT_ID            = -1000                                   
CENTER_NAME          = SUN                     
REF_FRAME            = EME2000 
TIME_SYSTEM          = TCB
START_TIME           = 2036-12-23T00:00:30.346418            
STOP_TIME            = 2047-09-08T02:19:28.705472            
INTERPOLATION        = HERMITE                                 
INTERPOLATION_DEGREE = 7                                       
META_STOP

2040-05-02T11:35:59.556105    -1.39368115705568075e+08   -4.95556167991815954e+07   -2.17598102755431905e+07    1.06570676856534128e+01   -2.56363563465483537e+01   -1.08488271265387297e+01    5.53448115628287338e-06    1.96783335979558546e-06    8.64079783518036721e-07
2040-05-03T07:43:49.810013    -1.38581289988920152e+08   -5.14082583940769061e+07   -2.25437313285155855e+07    1.10569864906719815e+01   -2.54910936719195469e+01   -1.07850845435104912e+01    5.50210010478579392e-06    2.04098281337891705e-06    8.95025298628243680e-07
2040-05-04T03:51:40.063920    -1.37765568079263508e+08   -5.32501810744071156e+07   -2.33229518518700413e+07    1.14545173984692426e+01   -2.53405463022089386e+01   -1.07191065358225401e+01    5.46858239939333651e-06    2.11367540149874719e-06    9.25770930954678443e-07
2040-05-04T23:59:30.317828    -1.36921126035703659e+08   -5.50810030929668844e+07   -2.40973103842361420e+07    1.18495783229770559e+01   -2.51847478866253986e+01   -1.06509078171654252e+01    5.43393601521951670e-06    2.18589624150562353e-06    9.56310393899125435e-07
2040-05-05T20:07:20.571736    -1.36048145836751789e+08   -5.69003451728753000e+07   -2.48666465439006388e+07    1.22420877647571302e+01   -2.50237331482350065e+01   -1.05805035547796535e+01    5.39816916593810265e-06    2.25763058045606770e-06    9.86637457271260223e-07
2040-05-06T16:15:10.825644    -1.35146815325260848e+08   -5.87078305753306597e+07   -2.56308010573327206e+07    1.26319648280698402e+01   -2.48575378745406042e+01   -1.05079093653638118e+01    5.36129029691169986e-06    2.32886379531797057e-06    1.01674594724015699e-06
2040-05-07T12:23:01.079552    -1.34217328158365265e+08   -6.05030851719532833e+07   -2.63896157896852754e+07    1.30191292372639289e+01   -2.46861989081273414e+01   -1.04331413110214939e+01    5.32330807331104351e-06    2.39958139094048769e-06    1.04662974530974901e-06
2040-05-08T08:30:51.333460    -1.33259883766731694e+08   -6.22857375253205895e+07   -2.71429337788265571e+07    1.34035013521298545e+01   -2.45097541375341734e+01   -1.03562158953169039e+01    5.28423136336559520e-06    2.46976899583993770e-06    1.07628278634076707e-06
2040-05-09T04:38:41.587367    -1.32274687327427402e+08   -6.40554189812984467e+07   -2.78905992744567394e+07    1.37850021818596602e+01   -2.43282424885111759e+01   -1.02771500595089087e+01    5.24406921669536708e-06    2.53941235577793011e-06    1.10569905560892830e-06
2040-05-10T00:46:31.841275    -1.31261949754713356e+08   -6.58117637767727673e+07   -2.86324577838636562e+07    1.41635533972560950e+01   -2.41417039158226814e+01   -1.01959611790334268e+01    5.20283083768924037e-06    2.60849732512857497e-06    1.13487258489767895e-06
2040-05-10T20:54:22.095183    -1.30221887713069037e+08   -6.75544091663853228e+07   -2.93683561258723736e+07    1.45390773408338951e+01   -2.39501793957561731e+01   -1.01126670603039166e+01    5.16052555385749700e-06    2.67700985600505353e-06    1.16379744761266839e-06
2040-05-11T17:02:50.771668    -1.29154150490398169e+08   -6.92839080377413779e+07   -3.00985276770273261e+07    1.49116936714674857e+01   -2.37536054410010031e+01   -1.00272401154494446e+01    5.11714023477734134e-06    2.74497215839978090e-06    1.19248302321503218e-06
2040-05-12T13:11:19.448153    -1.28059510333387345e+08   -7.09989754686607271e+07   -3.08224298574066795e+07    1.52811261251455797e+01   -2.35521253210996377e+01   -9.93974262858356639e+00    5.07270666693121360e-06    2.81233389167848310e-06    1.22090806209814894e-06
2040-05-13T09:19:48.124638    -1.26938200862740740e+08   -7.26992573368426412e+07   -3.15399132360470034e+07    1.56472990645968437e+01   -2.33457830725342248e+01   -9.85019369743870143e+00    5.02723507524292078e-06    2.87908155662562627e-06    1.24906687388198135e-06
2040-05-14T05:28:16.801124    -1.25790461121215060e+08   -7.43844026990063936e+07   -3.22508297604562305e+07    1.60101375992613875e+01   -2.31346237066919116e+01   -9.75861283067725438e+00    4.98073583478969876e-06    2.94520176528338772e-06    1.27695381584765729e-06
2040-05-15T01:36:45.477610    -1.24616535550383300e+08   -7.60540639035690129e+07   -3.29550328044335693e+07    1.63695675968751750e+01   -2.29186932010763762e+01   -9.66501994412107557e+00    4.93321948920560742e-06    3.01068126023864902e-06    1.30456330135174116e-06
2040-05-15T21:45:14.154095    -1.23416673951497078e+08   -7.77078966824809015e+07   -3.36523772069419101e+07    1.67255156962285945e+01   -2.26980384892457501e+01   -9.56943535642529142e+00    4.88469676476698888e-06    3.07550693050907948e-06    1.33188980675697342e-06
2040-05-16T17:53:42.830580    -1.22191131433709800e+08   -7.93455602266209573e+07   -3.43427193039219230e+07    1.70779093207900168e+01   -2.24727074497217387e+01   -9.47187978430328315e+00    4.83517858016588686e-06    3.13966582403414167e-06    1.35892787688187494e-06
2040-05-17T14:02:11.507066    -1.20940168352931231e+08   -8.09667172491357476e+07   -3.50259169549296126e+07    1.74266766928814718e+01   -2.22427488941162395e+01   -9.37237433741027104e+00    4.78467605196555378e-06    3.20314515676673485e-06    1.38567212896745841e-06
2040-05-18T10:10:40.183551    -1.19664050244583875e+08   -8.25710340411066413e+07   -3.57018295664792731e+07    1.77717468480935885e+01   -2.20082125547218688e+01   -9.27094051299298805e+00    4.73320049574697935e-06    3.26593231837166881e-06    1.41211725516365377e-06
2040-05-19T06:19:08.860036    -1.18363047753531709e+08   -8.41581805239296556e+07   -3.63703181139735729e+07    1.81130496496269195e+01   -2.17691490718126062e+01   -9.16760019041285901e+00    4.68076342292595674e-06    3.32801487451786843e-06    1.43825802352986352e-06
2040-05-20T02:27:37.536522    -1.17037436564451665e+08   -8.57278303027920127e+07   -3.70312451641027853e+07    1.84505158022467484e+01   -2.15256099809009669e+01   -9.06237562565017996e+00    4.62737653327714521e-06    3.38938056578764473e-06    1.46408927755962943e-06
2040-05-20T22:36:06.213007    -1.15687497335918486e+08   -8.72796607256299555e+07   -3.76844748995947763e+07    1.87840768655385801e+01   -2.12776477001980098e+01   -8.95528944589673159e+00    4.57305170312757177e-06    3.45001730317699366e-06    1.48960593421832658e-06
2040-05-21T18:44:34.889492    -1.14313515641473278e+08   -8.88133529519518316e+07   -3.83298731481977999e+07    1.91136652661513438e+01   -2.10253155185224543e+01   -8.84636464434428049e+00    4.51780096923818714e-06    3.50991316020324083e-06    1.51480298050063998e-06
2040-05-22T14:53:03.565977    -1.12915781920946240e+08   -9.03285920359112620e+07   -3.89673074177778810e+07    1.94392143087155347e+01   -2.07686675839053372e+01   -8.73562457527645364e+00    4.46163650836197494e-06    3.56905636161004440e-06    1.53967546850392701e-06
2040-05-23T11:01:32.242463    -1.11494591445304245e+08   -9.18250670280142128e+07   -3.95966469394125044e+07    1.97606581851233258e+01   -2.05077588931363728e+01   -8.62309294957139727e+00    4.40457061253027804e-06    3.62743526869806719e-06    1.56421850902928225e-06
2040-05-24T07:10:00.918948    -1.10050244298293442e+08   -9.33024710998445153e+07   -4.02177627203627378e+07    2.00779319818578799e+01   -2.02426452824985361e+01   -8.50879383072272866e+00    4.34661565991219199e-06    3.68503836119813838e-06    1.58842726367456329e-06
2040-05-25T03:20:17.286558    -1.08580849262052134e+08   -9.47626523797910511e+07   -4.08314313167682216e+07    2.03914334562923365e+01   -1.99729804361334260e+01   -8.39257799311116770e+00    4.28769668305196757e-06    3.74193846969890066e-06    1.61233233235048294e-06
2040-05-25T23:30:33.654169    -1.07088845005104944e+08   -9.62031022702402771e+07   -4.14365980209072232e+07    2.07006249284264179e+01   -1.96992127067907781e+01   -8.27463874183557024e+00    4.22791175353689307e-06    3.79803814873427231e-06    1.63589276151902132e-06
2040-05-26T19:40:50.021779    -1.05574546784074485e+08   -9.76235249835657477e+07   -4.20331386097364500e+07    2.10054439918026965e+01   -1.94214006132473926e+01   -8.15500126878014164e+00    4.16727399497113111e-06    3.85332655348471047e-06    1.65910400409021033e-06
2040-05-27T15:51:06.389389    -1.04038274330594838e+08   -9.90236289549878389e+07   -4.26209306779784113e+07    2.13058291968631046e+01   -1.91396034570352356e+01   -8.03369109397808678e+00    4.10579664135984980e-06    3.90779297411336034e-06    1.68196157098058006e-06
2040-05-28T12:01:22.756998    -1.02480351801444083e+08   -1.00403126946412221e+08   -4.31998536820301414e+07    2.16017200594939673e+01   -1.88538813118308042e+01   -7.91073406105332300e+00    4.04349305100090443e-06    3.96142685730873610e-06    1.70446104033115184e-06
2040-05-29T08:11:39.124608    -1.00901107718437523e+08   -1.01761736126852825e+08   -4.37697889738650844e+07    2.18930570704534837e+01   -1.85642950114278769e+01   -7.78615633205620306e+00    3.98037671698579544e-06    4.01421782382056020e-06    1.72659806500662526e-06
2040-05-30T04:21:55.492218    -9.93008749001549184e+07   -1.03099178134370625e+08   -4.43306198270349652e+07    2.21797817054387707e+01   -1.82709061365822016e+01   -7.65998438181700259e+00    3.91646127431490951e-06    4.06615568199507883e-06    1.74836837837830601e-06
